{
    "links": {
        "self": "http://www.neowsapp.com/rest/v1/neo/3781987?api_key=iIulBulltgU6a56xZRHN4H3l9WmuAYTsLGpBGhQ2"
    },
    "id": "3781987",
    "neo_reference_id": "3781987",
    "name": "(2017 SH20)",
    "designation": "2017 SH20",
    "nasa_jpl_url": "http://ssd.jpl.nasa.gov/sbdb.cgi?sstr=3781987",
    "absolute_magnitude_h": 23.9,
    "estimated_diameter": {
        "kilometers": {
            "estimated_diameter_min": 0.04411182,
            "estimated_diameter_max": 0.0986370281
        },
        "meters": {
            "estimated_diameter_min": 44.1118199997,
            "estimated_diameter_max": 98.6370281305
        },
        "miles": {
            "estimated_diameter_min": 0.0274098057,
            "estimated_diameter_max": 0.0612901888
        },
        "feet": {
            "estimated_diameter_min": 144.7238235278,
            "estimated_diameter_max": 323.6123073718
        }
    },
    "is_potentially_hazardous_asteroid": false,
    "close_approach_data": [
        {
            "close_approach_date": "2016-04-14",
            "close_approach_date_full": "2016-Apr-14 06:12",
            "epoch_date_close_approach": 1460614320000,
            "relative_velocity": {
                "kilometers_per_second": "22.8246773045",
                "kilometers_per_hour": "82168.8382963429",
                "miles_per_hour": "51056.5206625249"
            },
            "miss_distance": {
                "astronomical": "0.3992190644",
                "lunar": "155.2962160516",
                "kilometers": "59722321.697632828",
                "miles": "37109729.9018679064"
            },
            "orbiting_body": "Earth"
        },
        {
            "close_approach_date": "2016-09-23",
            "close_approach_date_full": "2016-Sep-23 11:16",
            "epoch_date_close_approach": 1474629360000,
            "relative_velocity": {
                "kilometers_per_second": "20.2983398907",
                "kilometers_per_hour": "73074.0236063706",
                "miles_per_hour": "45405.356501414"
            },
            "miss_distance": {
                "astronomical": "0.3389845565",
                "lunar": "131.8649924785",
                "kilometers": "50711367.615294655",
                "miles": "31510582.671010039"
            },
            "orbiting_body": "Earth"
        },
        {
            "close_approach_date": "2017-09-26",
            "close_approach_date_full": "2017-Sep-26 17:42",
            "epoch_date_close_approach": 1506447720000,
            "relative_velocity": {
                "kilometers_per_second": "21.5616053458",
                "kilometers_per_hour": "77621.7792448426",
                "miles_per_hour": "48231.1549979968"
            },
            "miss_distance": {
                "astronomical": "0.0781778752",
                "lunar": "30.4111934528",
                "kilometers": "11695243.611045824",
                "miles": "7267087.4005834112"
            },
            "orbiting_body": "Earth"
        },
        {
            "close_approach_date": "2018-10-05",
            "close_approach_date_full": "2018-Oct-05 06:28",
            "epoch_date_close_approach": 1538720880000,
            "relative_velocity": {
                "kilometers_per_second": "26.6046530162",
                "kilometers_per_hour": "95776.7508583319",
                "miles_per_hour": "59511.9483319452"
            },
            "miss_distance": {
                "astronomical": "0.3389285344",
                "lunar": "131.8431998816",
                "kilometers": "50702986.828461728",
                "miles": "31505375.0915507264"
            },
            "orbiting_body": "Earth"
        }
    ],
    "orbital_data": {
        "orbit_id": "1",
        "orbit_determination_date": "2017-09-30 11:42:10",
        "first_observation_date": "2017-09-28",
        "last_observation_date": "2017-09-30",
        "data_arc_in_days": 2,
        "observations_used": 15,
        "orbit_uncertainty": "9",
        "minimum_orbit_intersection": ".0780766",
        "jupiter_tisserand_invariant": "5.656",
        "epoch_osculation": "2458025.5",
        "eccentricity": ".2319872244504514",
        "semi_major_axis": "1.039338815874957",
        "inclination": "41.68291513556927",
        "ascending_node_longitude": "5.471662333468963",
        "orbital_period": "387.0206584276606",
        "perihelion_distance": ".7982254887165073",
        "perihelion_argument": "246.0619058883925",
        "aphelion_distance": "1.280452143033407",
        "perihelion_time": "2457931.228402316657",
        "mean_anomaly": "87.68982850652378",
        "mean_motion": ".9301829040924151",
        "equinox": "J2000",
        "orbit_class": {
            "orbit_class_type": "APO",
            "orbit_class_description": "Near-Earth asteroid orbits which cross the Earth’s orbit similar to that of 1862 Apollo",
            "orbit_class_range": "a (semi-major axis) > 1.0 AU; q (perihelion) < 1.017 AU"
        }
    },
    "is_sentry_object": false
}